BRO-10
1 58331U 23174CD  25332.20586471  .00066272  00000+0  10665-2 0  9997
2 58331  97.3893  56.4214 0006244 120.6384 239.5485 15.52736553114883